NORAD_CAT_ID,OBJECT_NAME,OBJECT_TYPE,EPOCH,MEAN_MOTION,ECCENTRICITY,INCLINATION,RA_OF_ASC_NODE,ARG_OF_PERICENTER,MEAN_ANOMALY,BSTAR,MEAN_MOTION_DOT,MEAN_MOTION_DDOT,TLE_LINE0,TLE_LINE1,TLE_LINE2,SEMIMAJOR_AXIS,PERIOD,APOGEE,PERIGEE,DECAYED
54093.0,STARLINK-5213,PAYLOAD,2024-03-02 05:06:32,15.08846963,0.0001517,53.2171,44.5328,95.9783,264.1383,0.00010614,1.402e-05,0.0,0 STARLINK-5213,1 54093U 22136AU  24062.21287563  .00001402  00000-0  10614-3 0  9995,2 54093  53.2171  44.5328 0001517  95.9783 264.1383 15.08846963 76126,6917.859,95.437,540.774,538.675,0.0
54093.0,STARLINK-5213,PAYLOAD,2024-03-03 04:57:20,15.08841948,0.0001522,53.217,40.0746,83.9175,276.1991,2.7836e-05,1.55e-06,0.0,0 STARLINK-5213,1 54093U 22136AU  24063.20648326  .00000155  00000-0  27836-4 0  9992,2 54093  53.2170  40.0746 0001522  83.9175 276.1991 15.08841948 76270,6917.874,95.437,540.792,538.687,0.0
54093.0,STARLINK-5213,PAYLOAD,2024-03-04 03:12:43,15.08846046,0.0001657,53.2179,35.9135,95.7439,264.3742,0.00012754,1.743e-05,0.0,0 STARLINK-5213,1 54093U 22136AU  24064.13383627  .00001743  00000-0  12754-3 0  9991,2 54093  53.2179  35.9135 0001657  95.7439 264.3742 15.08846046 75947,6917.862,95.437,540.873,538.581,0.0
54093.0,STARLINK-5213,PAYLOAD,2024-03-05 03:03:31,15.08831872,0.0001668,53.2184,31.4514,113.0511,247.0657,2.2509e-05,7e-07,0.0,0 STARLINK-5213,1 54093U 22136AU  24065.12744943  .00000070  00000-0  22509-4 0  9995,2 54093  53.2184  31.4514 0001668 113.0511 247.0657 15.08831872 76565,6917.905,95.438,540.924,538.616,0.0
54093.0,STARLINK-5213,PAYLOAD,2024-03-05 07:49:40,15.08836118,0.0001398,53.2175,30.5558,101.0023,259.1126,5.8812e-05,6.48e-06,0.0,0 STARLINK-5213,1 54093U 22136AU  24065.32616661  .00000648  00000-0  58812-4 0  9999,2 54093  53.2175  30.5558 0001398 101.0023 259.1126 15.08836118 76123,6917.892,95.438,540.724,538.79,0.0
54093.0,STARLINK-5213,PAYLOAD,2024-03-06 04:29:41,15.08845015,0.0001299,53.2175,26.6909,95.0655,265.0485,6.6422e-05,7.7e-06,0.0,0 STARLINK-5213,1 54093U 22136AU  24066.18728424  .00000770  00000-0  66422-4 0  9997,2 54093  53.2175  26.6909 0001299  95.0655 265.0485 15.08845015 76728,6917.865,95.437,540.629,538.831,0.0
54093.0,STARLINK-5213,PAYLOAD,2024-03-06 07:40:27,15.08848326,0.0001291,53.2175,26.0951,91.5761,268.5379,0.00012891,1.765e-05,0.0,0 STARLINK-5213,1 54093U 22136AU  24066.31976246  .00001765  00000-0  12891-3 0  9994,2 54093  53.2175  26.0951 0001291  91.5761 268.5379 15.08848326 76278,6917.855,95.437,540.613,538.827,0.0
54093.0,STARLINK-5213,PAYLOAD,2024-03-07 02:45:05,15.08838714,0.0001164,53.2167,22.5253,89.3685,270.744,0.00010064,1.314e-05,0.0,0 STARLINK-5213,1 54093U 22136AU  24067.11464858  .00001314  00000-0  10064-3 0  9994,2 54093  53.2167  22.5253 0001164  89.3685 270.7440 15.08838714 76863,6917.884,95.438,540.555,538.944,0.0
54093.0,STARLINK-5213,PAYLOAD,2024-03-07 13:52:47,15.08835585,0.0001205,53.2174,20.4447,89.729,270.384,2.935e-05,1.79e-06,0.0,0 STARLINK-5213,1 54093U 22136AU  24067.57833144  .00000179  00000-0  29350-4 0  9999,2 54093  53.2174  20.4447 0001205  89.7290 270.3840 15.08835585 76464,6917.894,95.438,540.592,538.925,0.0
54093.0,STARLINK-5213,PAYLOAD,2024-03-08 04:11:16,15.0884448,0.0001358,53.2185,17.7688,86.0386,274.0761,3.1316e-05,2.11e-06,0.0,0 STARLINK-5213,1 54093U 22136AU  24068.17449121  .00000211  00000-0  31316-4 0  9996,2 54093  53.2185  17.7688 0001358  86.0386 274.0761 15.08844480 77027,6917.867,95.437,540.671,538.792,0.0
54093.0,STARLINK-5213,PAYLOAD,2024-03-08 13:43:34,15.08843425,0.0001369,53.2185,15.9854,82.7644,277.3504,1.6327e-05,-2.8e-07,0.0,0 STARLINK-5213,1 54093U 22136AU  24068.57193271 -.00000028  00000-0  16327-4 0  9994,2 54093  53.2185  15.9854 0001369  82.7644 277.3504 15.08843425 76617,6917.87,95.437,540.682,538.788,0.0
54093.0,STARLINK-5213,PAYLOAD,2024-03-09 05:37:26,15.08846126,0.0001362,53.2183,13.0091,91.0516,269.0632,8.6011e-05,1.081e-05,0.0,0 STARLINK-5213,1 54093U 22136AU  24069.23433012  .00001081  00000-0  86011-4 0  9994,2 54093  53.2183  13.0091 0001362  91.0516 269.0632 15.08846126 77185,6917.862,95.437,540.669,538.784,0.0
54093.0,STARLINK-5213,PAYLOAD,2024-03-09 13:34:21,15.08848118,0.000136,53.2182,11.5258,88.8666,271.2482,6.5841e-05,7.6e-06,0.0,0 STARLINK-5213,1 54093U 22136AU  24069.56552803  .00000760  00000-0  65841-4 0  9991,2 54093  53.2182  11.5258 0001360  88.8666 271.2482 15.08848118 76764,6917.856,95.437,540.661,538.78,0.0
54093.0,STARLINK-5213,PAYLOAD,2024-03-09 19:55:54,15.08842462,0.000143,53.2197,10.3335,98.4571,261.6583,0.0001232,1.673e-05,0.0,0 STARLINK-5213,1 54093U 22136AU  24069.83049038  .00001673  00000-0  12320-3 0  9999,2 54093  53.2197  10.3335 0001430  98.4571 261.6583 15.08842462 76809,6917.873,95.437,540.727,538.749,0.0
54093.0,STARLINK-5213,PAYLOAD,2024-03-10 13:25:07,15.0885314,0.0001118,53.219,7.0628,89.7749,270.3371,7.3381e-05,8.81e-06,0.0,0 STARLINK-5213,1 54093U 22136AU  24070.55912020  .00000881  00000-0  73381-4 0  9995,2 54093  53.2190   7.0628 0001118  89.7749 270.3371 15.08853140 76912,6917.84,95.437,540.479,538.932,0.0
54093.0,STARLINK-5213,PAYLOAD,2024-03-10 22:57:27,15.08851382,0.0001131,53.2173,5.2754,110.0419,250.0695,-0.0001142,-2.105e-05,0.0,0 STARLINK-5213,1 54093U 22136AU  24070.95656353 -.00002105  00000-0 -11420-3 0  9991,2 54093  53.2173   5.2754 0001131 110.0419 250.0695 15.08851382 76976,6917.846,95.437,540.493,538.928,0.0
54093.0,STARLINK-5213,PAYLOAD,2024-03-11 05:19:00,15.08844198,0.0001484,53.2191,4.0897,91.7892,268.327,-5.5138e-06,-3.76e-06,0.0,0 STARLINK-5213,1 54093U 22136AU  24071.22152937 -.00000376  00000-0 -55138-5 0  9995,2 54093  53.2191   4.0897 0001484  91.7892 268.3270 15.08844198 77487,6917.868,95.437,540.759,538.706,0.0
54093.0,STARLINK-5213,PAYLOAD,2024-03-12 00:23:38,15.08836346,0.0001349,53.2192,0.5212,98.1396,261.9749,2.3674e-05,8.9e-07,0.0,0 STARLINK-5213,1 54093U 22136AU  24072.01641283  .00000089  00000-0  23674-4 0  9998,2 54093  53.2192   0.5212 0001349  98.1396 261.9749 15.08836346 77600,6917.892,95.438,540.69,538.823,0.0
54093.0,STARLINK-5213,PAYLOAD,2024-03-12 11:31:20,15.08819487,0.0001487,53.2188,358.439,104.0553,256.0605,0.00036583,5.536e-05,0.0,0 STARLINK-5213,1 54093U 22136AU  24072.48009757  .00005536  00000-0  36583-3 0  9997,2 54093  53.2188 358.4390 0001487 104.0553 256.0605 15.08819487 77672,6917.943,95.439,540.837,538.779,0.0
54093.0,STARLINK-5213,PAYLOAD,2024-03-13 11:22:07,15.08837443,0.0001573,53.2199,353.9798,84.1899,275.9272,2.2117e-05,6.4e-07,0.0,0 STARLINK-5213,1 54093U 22136AU  24073.47369552  .00000064  00000-0  22117-4 0  9999,2 54093  53.2199 353.9798 0001573  84.1899 275.9272 15.08837443 77822,6917.888,95.438,540.841,538.665,0.0
54093.0,STARLINK-5213,PAYLOAD,2024-03-13 22:29:49,15.0883587,0.0001412,53.2187,351.8978,95.1507,264.9646,2.7692e-05,1.53e-06,0.0,0 STARLINK-5213,1 54093U 22136AU  24073.93737771  .00000153  00000-0  27692-4 0  9994,2 54093  53.2187 351.8978 0001412  95.1507 264.9646 15.08835870 77427,6917.893,95.438,540.735,538.781,0.0
54093.0,STARLINK-5213,PAYLOAD,2024-03-14 04:51:21,15.08845661,0.000148,53.2193,350.7087,90.6825,269.4337,0.00011469,1.538e-05,0.0,0 STARLINK-5213,1 54093U 22136AU  24074.20232973  .00001538  00000-0  11469-3 0  9991,2 54093  53.2193 350.7087 0001480  90.6825 269.4337 15.08845661 77933,6917.863,95.437,540.752,538.704,0.0
54093.0,STARLINK-5213,PAYLOAD,2024-03-14 22:20:36,15.08834129,0.0001581,53.2187,347.4336,78.1897,281.9273,8.3262e-05,1.037e-05,0.0,0 STARLINK-5213,1 54093U 22136AU  24074.93097893  .00001037  00000-0  83262-4 0  9996,2 54093  53.2187 347.4336 0001581  78.1897 281.9273 15.08834129 77573,6917.898,95.438,540.857,538.67,0.0
54093.0,STARLINK-5213,PAYLOAD,2024-03-15 03:06:45,15.08840759,0.0001556,53.2194,346.5407,81.5386,278.5783,6.8861e-05,8.08e-06,0.0,0 STARLINK-5213,1 54093U 22136AU  24075.12969593  .00000808  00000-0  68861-4 0  9996,2 54093  53.2194 346.5407 0001556  81.5386 278.5783 15.08840759 78073,6917.878,95.438,540.819,538.667,0.0
54093.0,STARLINK-5213,PAYLOAD,2024-03-15 22:11:23,15.08834417,0.0001261,53.2185,342.9729,93.1591,266.9545,0.00014259,1.982e-05,0.0,0 STARLINK-5213,1 54093U 22136AU  24075.92457856  .00001982  00000-0  14259-3 0  9993,2 54093  53.2185 342.9729 0001261  93.1591 266.9545 15.08834417 77722,6917.897,95.438,540.635,538.89,0.0
54093.0,STARLINK-5213,PAYLOAD,2024-03-16 01:22:09,15.08845611,0.0001332,53.218,342.3822,101.6075,258.5067,3.749e-05,3.09e-06,0.0,0 STARLINK-5213,1 54093U 22136AU  24076.05705484  .00000309  00000-0  37490-4 0  9996,2 54093  53.2180 342.3822 0001332 101.6075 258.5067 15.08845611 77742,6917.863,95.437,540.65,538.807,0.0
54093.0,STARLINK-5213,PAYLOAD,2024-03-16 17:16:01,15.08836855,0.0001291,53.2171,339.4164,84.0425,276.0715,0.00011119,1.482e-05,0.0,0 STARLINK-5213,1 54093U 22136AU  24076.71945915  .00001482  00000-0  11119-3 0  9996,2 54093  53.2171 339.4164 0001291  84.0425 276.0715 15.08836855 78314,6917.89,95.438,540.648,538.862,0.0
54093.0,STARLINK-5213,PAYLOAD,2024-03-16 22:02:10,15.08839825,0.0001207,53.2171,338.5224,96.9199,263.193,2.7798e-05,1.55e-06,0.0,0 STARLINK-5213,1 54093U 22136AU  24076.91818019  .00000155  00000-0  27798-4 0  9999,2 54093  53.2171 338.5224 0001207  96.9199 263.1930 15.08839825 77874,6917.881,95.438,540.581,538.911,0.0
54093.0,STARLINK-5213,PAYLOAD,2024-03-16 23:37:33,15.08841808,0.0001216,53.2168,338.2247,94.1755,265.9376,4.1842e-05,3.78e-06,0.0,0 STARLINK-5213,1 54093U 22136AU  24076.98441871  .00000378  00000-0  41842-4 0  9997,2 54093  53.2168 338.2247 0001216  94.1755 265.9376 15.08841808 77889,6917.875,95.437,540.581,538.899,0.0
54093.0,STARLINK-5213,PAYLOAD,2024-03-17 20:17:34,15.08841907,0.0001336,53.2176,334.3573,87.2151,272.8994,6.0254e-05,6.71e-06,0.0,0 STARLINK-5213,1 54093U 22136AU  24077.84553773  .00000671  00000-0  60254-4 0  9992,2 54093  53.2176 334.3573 0001336  87.2151 272.8994 15.08841907 78483,6917.875,95.437,540.664,538.815,0.0
